{
  "type": "FeatureCollection",
  "features": [
    {
      "type": "Feature",
      "geometry": {
        "type": "Point",
        "coordinates": [
          115.816544,
          -31.9130383
        ]
      },
      "properties": {
        "Name": "The Inbetween Cafe",
        "Type": "Cafe",
        "Address": "12/381 Scarborough Beach Rd, Osborne Park WA 6017, Australia",
        "Apple Maps": "https://maps.apple/p/seI757vfGvAE~h"
      }
    },
    {
      "type": "Feature",
      "geometry": {
        "type": "Point",
        "coordinates": [
          115.810539,
          -31.9059544
        ]
      },
      "properties": {
        "Name": "Heaven Retreat Massage",
        "Type": "Massage",
        "Address": "1/454 Scarborough Beach Rd, Osborne Park WA 6017, Australia",
        "Apple Maps": "https://maps.apple/p/SkgxKHYv5j5n.n"
      }
    },
    {
      "type": "Feature",
      "geometry": {
        "type": "Point",
        "coordinates": [
          115.81250762939453,
          -31.909223556518555
        ]
      },
      "properties": {
        "Name": "Tesla Perth Osborne Park",
        "Type": "Car dealership",
        "Address": "419 Scarborough Beach Rd, Osborne Park WA 6017, Australia",
        "Apple Maps": "https://maps.apple/p/xLVSJrtXxxRIZ-"
      }
    },
    {
      "type": "Feature",
      "geometry": {
        "type": "Point",
        "coordinates": [
          115.81707763671875,
          -31.911510467529297
        ]
      },
      "properties": {
        "Name": "Auto Classic BMW",
        "Type": "Car dealership and service centre",
        "Address": "384 Scarborough Beach Rd, Osborne Park WA 6017, Australia",
        "Apple Maps": "https://maps.apple/p/J9~Dhih-IVLtIQ"
      }
    }
  ]
}
